STARLINK-3939           
1 52545U 22051N   23333.11014973  .00001556  00000+0  11585-3 0  9990
2 52545  53.2176 262.2253 0001590 111.4150 248.7012 15.08845680 85908
STARLINK-3948           
1 52546U 22051P   23334.11841598  .00000930  00000+0  76514-4 0  9992
2 52546  53.2181 257.3012 0001543  98.9583 261.1584 15.08854887 86138
STARLINK-3869           
1 52547U 22051Q   23334.13089153  .00023976  00000+0  15188-2 0  9999
2 52547  53.2166 262.6470 0001518  81.9322 278.1842 15.08854212 86052
STARLINK-3931           
1 52548U 22051R   23334.07431136  .00019881  00000+0  12632-2 0  9996
2 52548  53.2162 257.9051 0001669  95.3129 264.8054 15.08854447 86127
STARLINK-3935           
1 52549U 22051S   23334.09271083 -.00000570  00000+0 -17694-4 0  9994
2 52549  53.2167 257.8143 0001680 105.9640 254.1537 15.08841227 86123
STARLINK-3965           
1 52550U 22051T   23334.08166971  .00001621  00000+0  11995-3 0  9997
2 52550  53.2190 257.8726 0001498  90.9520 269.1644 15.08834094 86124
STARLINK-3969           
1 52551U 22051U   23334.02280568 -.00006437  00000+0 -38685-3 0  9998
2 52551  53.2179 258.1303 0001972  94.1457 265.9761 15.08822986 86119
STARLINK-3966           
1 52552U 22051V   23334.07158615  .00000434  00000+0  45381-4 0  9992
2 52552  53.2180 257.9187 0002037  80.8855 279.2368 15.08848693 86121
STARLINK-3858           
1 52553U 22051W   23334.08820643 -.00010164  00000+0 -59401-3 0  9991
2 52553  53.2174 257.8655 0001490 109.0828 251.0326 15.10464598 86123
STARLINK-3770           
1 52554U 22051X   23334.12353065  .00007406  00000+0  48288-3 0  9990
2 52554  53.2176 262.6769 0001703  64.0884 296.0283 15.08845413 86054
STARLINK-3949           
1 52555U 22051Y   23334.01910881 -.00011928  00000+0 -73211-3 0  9994
2 52555  53.2186 258.2153 0001970 125.0161 235.1016 15.08861183 86113
STARLINK-3763           
1 52556U 22051Z   23334.05146013 -.00000574  00000+0 -15881-4 0  9992
2 52556  53.2181 247.7388 0001520 114.9083 245.2069 15.12112189 86269
STARLINK-3943           
1 52557U 22051AA  23334.19942552  .00004462  00000+0  29819-3 0  9993
2 52557  53.2179 257.3339 0001609 105.9914 254.1256 15.08852073 86143
STARLINK-3954           
1 52558U 22051AB  23334.00162553 -.00005551  00000+0 -33095-3 0  9992
2 52558  53.2164 248.2146 0001893 105.2336 254.8865 15.08837840 86248
STARLINK-3953           
1 52559U 22051AC  23334.14516895  .00001334  00000+0  10189-3 0  9992
2 52559  53.2172 247.7648 0001855  98.0096 262.1106 15.08854317 86269
STARLINK-3956           
1 52560U 22051AD  23334.06419018  .00000145  00000+0  27196-4 0  9990
2 52560  53.2166 247.9404 0001776  98.9703 261.1490 15.08838697 86259
STARLINK-3955           
1 52561U 22051AE  23334.04624776 -.00002590  00000+0 -14467-3 0  9992
2 52561  53.2175 263.0199 0001907 106.3697 253.7504 15.08841018 86043
STARLINK-3957           
1 52562U 22051AF  23333.99058960 -.00000468  00000+0 -11309-4 0  9997
2 52562  53.2165 248.2714 0001694  98.5644 261.5540 15.08843808 86246
STARLINK-3942           
1 52563U 22051AG  23334.11617415  .00002965  00000+0  20424-3 0  9998
2 52563  53.2180 262.7054 0001632  87.3638 272.7541 15.08850393 86054
STARLINK-3959           
1 52564U 22051AH  23334.04352802  .00015951  00000+0  10177-2 0  9999
2 52564  53.2171 263.0463 0002004 112.8751 247.2453 15.08850999 86047
STARLINK-3911           
1 52565U 22051AJ  23334.06050092  .00008587  00000+0  55653-3 0  9994
2 52565  53.2158 247.9604 0001555 107.1749 252.9413 15.08868316 86259
STARLINK-3938           
1 52566U 22051AK  23334.08673406  .00005131  00000+0  34023-3 0  9997
2 52566  53.2181 262.8451 0001843  79.9575 280.1625 15.08842115 86050
STARLINK-3929           
1 52567U 22051AL  23334.18562581  .00001495  00000+0  11200-3 0  9991
2 52567  53.2170 247.3948 0001520  94.7904 265.3262 15.08850920 86270
STARLINK-3930           
1 52568U 22051AM  23334.04210964  .00001107  00000+0  87643-4 0  9997
2 52568  53.2174 248.0505 0001536  91.5914 268.5255 15.08848756 86254
STARLINK-3927           
1 52569U 22051AN  23334.04946813 -.00001282  00000+0 -62467-4 0  9990
2 52569  53.2182 248.0068 0001827  88.5204 271.5997 15.08844380 86255
STARLINK-3924           
1 52570U 22051AP  23334.03843564 -.00000964  00000+0 -42465-4 0  9992
2 52570  53.2169 248.0673 0001801  63.9635 296.1542 15.08839549 86251
STARLINK-3901           
1 52574U 22051AQ  23334.04578693  .00008646  00000+0  56042-3 0  9993
2 52574  53.2174 248.0275 0001792  93.1234 266.9964 15.08854280 86250
STARLINK-3920           
1 52575U 22051AR  23334.03474970  .00002194  00000+0  15590-3 0  9991
2 52575  53.2177 248.0791 0001965  67.8951 292.2249 15.08847776 86253
STARLINK-3932           
1 52576U 22051AS  23334.09458739 -.00002047  00000+0 -11053-3 0  9992
2 52576  53.2178 247.8112 0001889  70.2096 289.9100 15.08845675 86268
STARLINK-3836           
1 52577U 22051AT  23334.07937091 -.00000712  00000+0 -26607-4 0  9993
2 52577  53.2172 262.8753 0002019  99.4270 260.6950 15.08843713 86051
STARLINK-3833           
1 52578U 22051AU  23334.08305229  .00014769  00000+0  94455-3 0  9997
2 52578  53.2184 262.8551 0001681  87.3504 272.7680 15.08822715 86054
STARLINK-3893           
1 52579U 22051AV  23334.07201362  .00004078  00000+0  27412-3 0  9991
2 52579  53.2148 262.9147 0001607  67.5410 292.5752 15.08843185 86055
STARLINK-3919           
1 52580U 22051AW  23334.07665135  .00008584  00000+0  55666-3 0  9993
2 52580  53.2151 262.9016 0001541  95.3579 264.7589 15.08846195 86051
STARLINK-3915           
1 52581U 22051AX  23334.08994860 -.00000754  00000+0 -29287-4 0  9999
2 52581  53.2176 247.8318 0001742  75.2766 284.8419 15.08844222 86261
STARLINK-3886           
1 52582U 22051AY  23334.03107647  .00002824  00000+0  19548-3 0  9990
2 52582  53.2169 248.0966 0001873  72.5937 287.5260 15.08838082 86251
STARLINK-3895           
1 52583U 22051AZ  23334.08627380  .00009851  00000+0  63609-3 0  9991
2 52583  53.2169 247.8427 0001512  88.7167 271.3998 15.08843174 86263
STARLINK-3922           
1 52584U 22051BA  23334.09363099  .00003784  00000+0  25569-3 0  9999
2 52584  53.2181 247.8179 0001755  80.8194 279.2997 15.08847245 86263
STARLINK-3906           
1 52585U 22051BB  23334.14146545  .00007517  00000+0  48973-3 0  9993
2 52585  53.2170 247.5528 0001747 106.3666 253.7518 15.08852361 86278
STARLINK-3910           
1 52586U 22051BC  23334.08259090 -.00001144  00000+0 -53802-4 0  9997
2 52586  53.2178 247.8598 0001898  72.8241 287.2958 15.08845272 86262
STARLINK-3867           
1 52587U 22051BD  23334.06144748 -.00000272  00000+0  10112-5 0  9997
2 52587  53.2178 247.8084 0001757  90.2726 269.8468 15.08840474 86260
STARLINK-3917           
1 52588U 22051BE  23334.00530674 -.00001650  00000+0 -85563-4 0  9992
2 52588  53.2168 248.2028 0001767 104.7909 255.3279 15.08842593 86251
STARLINK-4019           
1 52598U 22052A   23334.50715862 -.00001678  00000+0 -87367-4 0  9997
2 52598  53.2178  50.9539 0001456  95.9277 264.1881 15.08848240 85826
STARLINK-4024           
1 52599U 22052B   23334.49476170  .00015653  00000+0  99926-3 0  9991
2 52599  53.2181  46.1150 0001516  85.0280 275.0885 15.08843817 85895
STARLINK-4026           
1 52600U 22052C   23333.54531550  .00006329  00000+0  41533-3 0  9994
2 52600  53.2182  50.2703 0001720  63.4505 296.6663 15.08843523 86186
STARLINK-4027           
1 52601U 22052D   23333.48642786  .00002742  00000+0  19031-3 0  9995
2 52601  53.2195  50.5412 0001746  61.8080 298.3088 15.08837698 86174
STARLINK-4012           
1 52602U 22052E   23334.47634272 -.00001826  00000+0 -96641-4 0  9994
2 52602  53.2200  46.0900 0001932 135.3030 224.8118 15.08851688 85894
STARLINK-4016           
1 52603U 22052F   23333.53522902  .00004759  00000+0  31682-3 0  9996
2 52603  53.2184  50.3279 0001626  76.8929 283.2244 15.08845598 86184
STARLINK-4013           
1 52604U 22052G   23333.54163054  .00003812  00000+0  25745-3 0  9999
2 52604  53.2203  50.2893 0001904  72.4778 287.6422 15.08841219 85384
STARLINK-4000           
1 52605U 22052H   23333.91667824  .00003493  00000+0  23756-3 0  9990
2 52605  53.2166  53.3868 0002055  81.1661  84.6946 15.08826561 85733
STARLINK-3928           
1 52606U 22052J   23333.53795174  .00005659  00000+0  37333-3 0  9991
2 52606  53.2190  50.3005 0002335  55.2261 304.8950 15.08843626 85384
STARLINK-3947           
1 52607U 22052K   23333.50348679  .00001431  00000+0  10794-3 0  9999
2 52607  53.2193  55.4696 0001710  88.4149 271.7039 15.08851314 85292
STARLINK-3979           
1 52608U 22052L   23334.45793791  .00001729  00000+0  12665-3 0  9993
2 52608  53.2182  46.1753 0003218 152.3918 207.7245 15.08859677 85896
STARLINK-3997           
1 52609U 22052M   23334.51314782 -.00000780  00000+0 -30906-4 0  9997
2 52609  53.2182  45.8773 0001348 103.7304 256.3838 15.08839307 85904
STARLINK-3998           
1 52610U 22052N   23334.43356777  .00000782  00000+0  67207-4 0  9994
2 52610  53.2176  51.2831 0001387  99.8941 260.2207 15.08847029 85814
STARLINK-3980           
1 52611U 22052P   23333.49884848  .00003481  00000+0  23663-3 0  9991
2 52611  53.2176  55.4830 0001420  87.3232 272.7923 15.08847668 85309
STARLINK-4002           
1 52612U 22052Q   23333.52690814  .00004144  00000+0  27832-3 0  9993
2 52612  53.2182  50.3540 0001695 120.4520 239.6639 15.08839617 85381
STARLINK-3921           
1 52613U 22052R   23333.50943794  .00007518  00000+0  48989-3 0  9994
2 52613  53.2190  40.4355 0002018  67.1941 292.9264 15.08842142 85517
STARLINK-3982           
1 52614U 22052S   23334.44047219  .00005031  00000+0  33395-3 0  9999
2 52614  53.2177  36.2597 0001597  84.0421 276.0753 15.08839704 86029
STARLINK-4011           
1 52615U 22052T   23333.56140548  .00002896  00000+0  19998-3 0  9990
2 52615  53.2182  55.2012 0001338  82.9227 277.1918 15.08838148 85309
